,name,address,city,state,zip,phone,LAT,LON,hasSpecialties,ADDICTION MEDICINE,ADVANCED HEART FAILURE AND TRANSPLANT CARDIOLOGY,ALLERGY/IMMUNOLOGY,ANESTHESIOLOGY,ANESTHESIOLOGY ASSISTANT,AUDIOLOGIST,CARDIAC ELECTROPHYSIOLOGY,CARDIAC SURGERY,CARDIOVASCULAR DISEASE (CARDIOLOGY),CERTIFIED NURSE MIDWIFE,CERTIFIED REGISTERED NURSE ANESTHETIST,CHIROPRACTIC,CLINICAL NURSE SPECIALIST,CLINICAL PSYCHOLOGIST,CLINICAL SOCIAL WORKER,COLORECTAL SURGERY (PROCTOLOGY),CRITICAL CARE (INTENSIVISTS),DENTIST,DERMATOLOGY,DIAGNOSTIC RADIOLOGY,EMERGENCY MEDICINE,ENDOCRINOLOGY,FAMILY PRACTICE,GASTROENTEROLOGY,GENERAL PRACTICE,GENERAL SURGERY,GERIATRIC MEDICINE,GERIATRIC PSYCHIATRY,GYNECOLOGICAL ONCOLOGY,HAND SURGERY,HEMATOLOGY,HEMATOLOGY/ONCOLOGY,HEMATOPOIETIC CELL TRANSPLANTATION AND CELLULAR TH,HOSPICE/PALLIATIVE CARE,HOSPITALIST,INFECTIOUS DISEASE,INTERNAL MEDICINE,INTERVENTIONAL CARDIOLOGY,INTERVENTIONAL PAIN MANAGEMENT,INTERVENTIONAL RADIOLOGY,MAXILLOFACIAL SURGERY,MEDICAL ONCOLOGY,NEPHROLOGY,NEUROLOGY,NEUROPSYCHIATRY,NEUROSURGERY,NUCLEAR MEDICINE,NURSE PRACTITIONER,OBSTETRICS/GYNECOLOGY,OCCUPATIONAL THERAPY,OPHTHALMOLOGY,OPTOMETRY,ORAL SURGERY,ORTHOPEDIC SURGERY,OSTEOPATHIC MANIPULATIVE MEDICINE,OTOLARYNGOLOGY,PAIN MANAGEMENT,PATHOLOGY,PEDIATRIC MEDICINE,PERIPHERAL VASCULAR DISEASE,PHYSICAL MEDICINE AND REHABILITATION,PHYSICAL THERAPY,PHYSICIAN ASSISTANT,PLASTIC AND RECONSTRUCTIVE SURGERY,PODIATRY,PREVENTATIVE MEDICINE,PSYCHIATRY,PULMONARY DISEASE,RADIATION ONCOLOGY,REGISTERED DIETITIAN OR NUTRITION PROFESSIONAL,"RHEUMATOLOGY,",SLEEP MEDICINE,SPEECH LANGUAGE PATHOLOGIST,SPORTS MEDICINE,SURGICAL ONCOLOGY,THORACIC SURGERY,UNDEFINED PHYSICIAN TYPE (SPECIFY),"UROLOGY,",VASCULAR SURGERY,id
0,Auckland City Hospital,2 Park Road,Grafton,Auckland,1023,,-41.25916475,174.7670579,FALSE,,,,,,,,,,,,,,,,,,,,,,,,,,,,,,,,,,,,,,,,,,,,,,,,,,,,,,,,,,,,,,,,,,,,,,,,,,,,,,,,30000
1,Auckland DHB X 3 Units - Mental Health,2 Park Road,Grafton,Auckland,1023,,-39.6393198,176.8365016,FALSE,,,,,,,,,,,,,,,,,,,,,,,,,,,,,,,,,,,,,,,,,,,,,,,,,,,,,,,,,,,,,,,,,,,,,,,,,,,,,,,,30001
2,Buchanan Rehabilitation Centre,27 Sutherland Road,Point Chevalier,Auckland,1025,,-41.3166673,174.7791441,FALSE,,,,,,,,,,,,,,,,,,,,,,,,,,,,,,,,,,,,,,,,,,,,,,,,,,,,,,,,,,,,,,,,,,,,,,,,,,,,,,,,30002
3,Greenlane Clinical Centre,214 Green Lane West,Epsom,Auckland,1051,,-37.7914612,175.2851755,FALSE,,,,,,,,,,,,,,,,,,,,,,,,,,,,,,,,,,,,,,,,,,,,,,,,,,,,,,,,,,,,,,,,,,,,,,,,,,,,,,,,30003
4,Tauranga Hospital,829 Cameron Road,Tauranga South,Tauranga,3112,,-40.337336,175.6163028,FALSE,,,,,,,,,,,,,,,,,,,,,,,,,,,,,,,,,,,,,,,,,,,,,,,,,,,,,,,,,,,,,,,,,,,,,,,,,,,,,,,,30004
5,Whakatane Hospital,33 Stewart Street,,Whakatane,3120,,-45.8523532,170.4593955,FALSE,,,,,,,,,,,,,,,,,,,,,,,,,,,,,,,,,,,,,,,,,,,,,,,,,,,,,,,,,,,,,,,,,,,,,,,,,,,,,,,,30005
6,Ashburton Hospital,34 Elizabeth Street,Allenton,Ashburton,7700,,-39.9295215,175.0506686,FALSE,,,,,,,,,,,,,,,,,,,,,,,,,,,,,,,,,,,,,,,,,,,,,,,,,,,,,,,,,,,,,,,,,,,,,,,,,,,,,,,,30006
7,Burwood Hospital,255 Mairehau Road,Burwood,Christchurch,8083,,-44.3946634,171.2424688,FALSE,,,,,,,,,,,,,,,,,,,,,,,,,,,,,,,,,,,,,,,,,,,,,,,,,,,,,,,,,,,,,,,,,,,,,,,,,,,,,,,,30007
8,Chatham Island Health Centre,6 Hospital Road,Chatham Island,Chatham Island,8013,,-36.8622095,174.7796385,FALSE,,,,,,,,,,,,,,,,,,,,,,,,,,,,,,,,,,,,,,,,,,,,,,,,,,,,,,,,,,,,,,,,,,,,,,,,,,,,,,,,30008
9,Christchurch Hospital,2 Riccarton Avenue,Christchurch Central,Christchurch,8011,,-37.555713,175.1604751,FALSE,,,,,,,,,,,,,,,,,,,,,,,,,,,,,,,,,,,,,,,,,,,,,,,,,,,,,,,,,,,,,,,,,,,,,,,,,,,,,,,,30009
10,Darfield Hospital,31 Mathias Street,,Darfield,7510,,-37.6936595,176.1071535,FALSE,,,,,,,,,,,,,,,,,,,,,,,,,,,,,,,,,,,,,,,,,,,,,,,,,,,,,,,,,,,,,,,,,,,,,,,,,,,,,,,,30010
11,Ellesmere Hospital,25 Cunningham Street,,Leeston,7632,,-36.9708868,174.7992164,FALSE,,,,,,,,,,,,,,,,,,,,,,,,,,,,,,,,,,,,,,,,,,,,,,,,,,,,,,,,,,,,,,,,,,,,,,,,,,,,,,,,30011
12,Hillmorton Hospital,1 Lincoln Road,Spreydon,Christchurch,8024,,-41.2039644,174.9120569,FALSE,,,,,,,,,,,,,,,,,,,,,,,,,,,,,,,,,,,,,,,,,,,,,,,,,,,,,,,,,,,,,,,,,,,,,,,,,,,,,,,,30012
13,Kaikoura Hospital,25 Deal Street,,Kaikoura,7300,,-41.2033481,174.9263451,FALSE,,,,,,,,,,,,,,,,,,,,,,,,,,,,,,,,,,,,,,,,,,,,,,,,,,,,,,,,,,,,,,,,,,,,,,,,,,,,,,,,30013
14,Lincoln Maternity Hospital,35 James Street,,Lincoln,7608,,-37.8078978,175.2789925,FALSE,,,,,,,,,,,,,,,,,,,,,,,,,,,,,,,,,,,,,,,,,,,,,,,,,,,,,,,,,,,,,,,,,,,,,,,,,,,,,,,,30014
15,Oxford Hospital,37 Park Avenue,,Oxford,7430,,-45.1919951,169.3210276,FALSE,,,,,,,,,,,,,,,,,,,,,,,,,,,,,,,,,,,,,,,,,,,,,,,,,,,,,,,,,,,,,,,,,,,,,,,,,,,,,,,,30015
16,Rangiora Hospital,161 Ashley Street,,Rangiora,7400,,-46.1348074,168.3259065,FALSE,,,,,,,,,,,,,,,,,,,,,,,,,,,,,,,,,,,,,,,,,,,,,,,,,,,,,,,,,,,,,,,,,,,,,,,,,,,,,,,,30016
17,The Princess Margaret Hospital,97 Cashmere Road,Cashmere,Christchurch,8022,,-45.253165,169.3878979,FALSE,,,,,,,,,,,,,,,,,,,,,,,,,,,,,,,,,,,,,,,,,,,,,,,,,,,,,,,,,,,,,,,,,,,,,,,,,,,,,,,,30017
18,Tuarangi Home,270 Cameron Street,,Ashburton,7700,,-46.236754,169.7395687,FALSE,,,,,,,,,,,,,,,,,,,,,,,,,,,,,,,,,,,,,,,,,,,,,,,,,,,,,,,,,,,,,,,,,,,,,,,,,,,,,,,,30018
19,Waikari Hospital,16 Littles Drive,,Waikari,7420,,-36.292827,174.524486,FALSE,,,,,,,,,,,,,,,,,,,,,,,,,,,,,,,,,,,,,,,,,,,,,,,,,,,,,,,,,,,,,,,,,,,,,,,,,,,,,,,,30019
20,Kapiti Health Centre,35 Warrimoo Street,,Paraparaumu,5032,,-40.3490226,175.6116388,FALSE,,,,,,,,,,,,,,,,,,,,,,,,,,,,,,,,,,,,,,,,,,,,,,,,,,,,,,,,,,,,,,,,,,,,,,,,,,,,,,,,30020
21,Kenepuru Hospital,16 Hospital Drive,,Porirua,5022,,-36.8800923,174.7724292,FALSE,,,,,,,,,,,,,,,,,,,,,,,,,,,,,,,,,,,,,,,,,,,,,,,,,,,,,,,,,,,,,,,,,,,,,,,,,,,,,,,,30021
22,Porirua Hospital Campus (Mental Health Services),16 Hospital Drive,,Porirua,5022,,-43.5262993,172.6378126,FALSE,,,,,,,,,,,,,,,,,,,,,,,,,,,,,,,,,,,,,,,,,,,,,,,,,,,,,,,,,,,,,,,,,,,,,,,,,,,,,,,,30022
23,Wellington Hospital,39 Riddiford Street,Newtown,Wellington,6021,,-37.2076533,174.9073996,FALSE,,,,,,,,,,,,,,,,,,,,,,,,,,,,,,,,,,,,,,,,,,,,,,,,,,,,,,,,,,,,,,,,,,,,,,,,,,,,,,,,30023
24,Wellington Hospital (Mental Health Services),39 Riddiford Street,Newton,Wellington,6021,,-46.1031953,168.937388,FALSE,,,,,,,,,,,,,,,,,,,,,,,,,,,,,,,,,,,,,,,,,,,,,,,,,,,,,,,,,,,,,,,,,,,,,,,,,,,,,,,,30024
25,Auckland Spinal Rehabilitation ,30 Bairds Road,Papatoetoe,Auckland,2025,,-36.675681,174.451024,FALSE,,,,,,,,,,,,,,,,,,,,,,,,,,,,,,,,,,,,,,,,,,,,,,,,,,,,,,,,,,,,,,,,,,,,,,,,,,,,,,,,30025
26,Botany Downs Hospital,292 Botany Road,Golflands,Auckland,2013,,-36.9213369,174.9129991,FALSE,,,,,,,,,,,,,,,,,,,,,,,,,,,,,,,,,,,,,,,,,,,,,,,,,,,,,,,,,,,,,,,,,,,,,,,,,,,,,,,,30026
27,Franklin Memorial Hospital,75 Kitchener Road,,Waiuku,2123,,-39.0735868,174.0583019,FALSE,,,,,,,,,,,,,,,,,,,,,,,,,,,,,,,,,,,,,,,,,,,,,,,,,,,,,,,,,,,,,,,,,,,,,,,,,,,,,,,,30027
28,Manukau Surgery Centre,901 Great South Road,Wiri,Auckland,2104,,-39.907202,175.026629,FALSE,,,,,,,,,,,,,,,,,,,,,,,,,,,,,,,,,,,,,,,,,,,,,,,,,,,,,,,,,,,,,,,,,,,,,,,,,,,,,,,,30028
29,Middlemore Hospital,100 Hospital Road,Mangere East,Auckland,2025,,-35.7086063,174.3202002,FALSE,,,,,,,,,,,,,,,,,,,,,,,,,,,,,,,,,,,,,,,,,,,,,,,,,,,,,,,,,,,,,,,,,,,,,,,,,,,,,,,,30029
30,Papakura Obstetric Hospital,2 Clevedon Road,,Papakura,2110,,-41.2785985,173.2904762,FALSE,,,,,,,,,,,,,,,,,,,,,,,,,,,,,,,,,,,,,,,,,,,,,,,,,,,,,,,,,,,,,,,,,,,,,,,,,,,,,,,,30030
31,Pukekohe Hospital,82 Kitchener Road,,Pukekohe,2120,,-41.5344335,173.9541376,FALSE,,,,,,,,,,,,,,,,,,,,,,,,,,,,,,,,,,,,,,,,,,,,,,,,,,,,,,,,,,,,,,,,,,,,,,,,,,,,,,,,30031
32,Tamaki Oranga,30 Bairds Road,Papatoetoe,Auckland,2025,,-36.847885,174.7474135,FALSE,,,,,,,,,,,,,,,,,,,,,,,,,,,,,,,,,,,,,,,,,,,,,,,,,,,,,,,,,,,,,,,,,,,,,,,,,,,,,,,,30032
33,Central Hawkes Bay Health Centre,1 Cook Street,,Waipukurau,4200,,-41.3242785,173.2297138,FALSE,,,,,,,,,,,,,,,,,,,,,,,,,,,,,,,,,,,,,,,,,,,,,,,,,,,,,,,,,,,,,,,,,,,,,,,,,,,,,,,,30033
34,Hawke's Bay Hospital,210 Omahu Road,Camberley,Hastings,4120,,-37.742462,176.1370835,FALSE,,,,,,,,,,,,,,,,,,,,,,,,,,,,,,,,,,,,,,,,,,,,,,,,,,,,,,,,,,,,,,,,,,,,,,,,,,,,,,,,30034
35,Wairoa Hospital & Health Centre,36 Kitchener Street,,Wairoa,4108,,-35.6950886,174.3325857,FALSE,,,,,,,,,,,,,,,,,,,,,,,,,,,,,,,,,,,,,,,,,,,,,,,,,,,,,,,,,,,,,,,,,,,,,,,,,,,,,,,,30035
36,Hutt Valley Hospital,638 High Street,Boulcott,Lower Hutt,5010,,-43.5112131,172.6223412,FALSE,,,,,,,,,,,,,,,,,,,,,,,,,,,,,,,,,,,,,,,,,,,,,,,,,,,,,,,,,,,,,,,,,,,,,,,,,,,,,,,,30036
37,Rotorua Hospital,Corner of Arawa Street and Pukeroa Hill,,Rotorua,3010,,-36.964617,174.9052788,FALSE,,,,,,,,,,,,,,,,,,,,,,,,,,,,,,,,,,,,,,,,,,,,,,,,,,,,,,,,,,,,,,,,,,,,,,,,,,,,,,,,30037
38,Taupo Hospital,38 Kotare Street,Hilltop,Taupo,3330,,-45.84787295,170.5318783,FALSE,,,,,,,,,,,,,,,,,,,,,,,,,,,,,,,,,,,,,,,,,,,,,,,,,,,,,,,,,,,,,,,,,,,,,,,,,,,,,,,,30038
39,Horowhenua Health Centre,62 Liverpool Street,,Levin,5510,,-36.8455215,174.7703451,FALSE,,,,,,,,,,,,,,,,,,,,,,,,,,,,,,,,,,,,,,,,,,,,,,,,,,,,,,,,,,,,,,,,,,,,,,,,,,,,,,,,30039
40,Palmerston North Hospital,50 Ruahine Street,Roslyn,Palmerston North,4414,,-36.8803768,174.8118722,FALSE,,,,,,,,,,,,,,,,,,,,,,,,,,,,,,,,,,,,,,,,,,,,,,,,,,,,,,,,,,,,,,,,,,,,,,,,,,,,,,,,30040
41,Te Papaioea Birthing Centre,117 Ruahine Street,Roslyn,Palmerston North,4414,,-37.7883069,175.2903534,FALSE,,,,,,,,,,,,,,,,,,,,,,,,,,,,,,,,,,,,,,,,,,,,,,,,,,,,,,,,,,,,,,,,,,,,,,,,,,,,,,,,30041
42,Alexandra Hospital,Gilbert Street,Richmond,Nelson,7020,,-36.40084416,174.6541935,FALSE,,,,,,,,,,,,,,,,,,,,,,,,,,,,,,,,,,,,,,,,,,,,,,,,,,,,,,,,,,,,,,,,,,,,,,,,,,,,,,,,30042
43,Mental Health Admissions Unit,65 Tipahi Street,Nelson South,Nelson,7010,,-40.9470552,175.6725983,FALSE,,,,,,,,,,,,,,,,,,,,,,,,,,,,,,,,,,,,,,,,,,,,,,,,,,,,,,,,,,,,,,,,,,,,,,,,,,,,,,,,30043
44,Murchison Hospital and Health Centre,58 Hotham Street,,Murchison,7007,,-44.3858177,171.2156999,FALSE,,,,,,,,,,,,,,,,,,,,,,,,,,,,,,,,,,,,,,,,,,,,,,,,,,,,,,,,,,,,,,,,,,,,,,,,,,,,,,,,30044
45,Nelson Bays Maternity Unit (Te Whare Whanau),15 Courtney Street,,Motueka,7120,,-41.1296558,173.0080598,FALSE,,,,,,,,,,,,,,,,,,,,,,,,,,,,,,,,,,,,,,,,,,,,,,,,,,,,,,,,,,,,,,,,,,,,,,,,,,,,,,,,30045
46,Nelson Hospital,98 Waimea Road,Nelson South,Nelson,7010,,-36.8812416,174.7721431,FALSE,,,,,,,,,,,,,,,,,,,,,,,,,,,,,,,,,,,,,,,,,,,,,,,,,,,,,,,,,,,,,,,,,,,,,,,,,,,,,,,,30046
47,Tipahi Street Mental Health,59 Tipahi Street,Nelson South,Nelson,7010,,-36.8791865,174.7711067,FALSE,,,,,,,,,,,,,,,,,,,,,,,,,,,,,,,,,,,,,,,,,,,,,,,,,,,,,,,,,,,,,,,,,,,,,,,,,,,,,,,,30047
48,Wairau Hospital,30 Hospital Road,Witherlea,Blenheim,7201,,-43.5206741,172.6344055,FALSE,,,,,,,,,,,,,,,,,,,,,,,,,,,,,,,,,,,,,,,,,,,,,,,,,,,,,,,,,,,,,,,,,,,,,,,,,,,,,,,,30048
49,Bay of Islands Hospital,Hospital Road,,Kawakawa,210,,-37.7889297,175.2905872,FALSE,,,,,,,,,,,,,,,,,,,,,,,,,,,,,,,,,,,,,,,,,,,,,,,,,,,,,,,,,,,,,,,,,,,,,,,,,,,,,,,,30049
50,Dargaville Hospital,73 Awakino Road,,Dargaville,310,,-46.4071085,168.3535626,FALSE,,,,,,,,,,,,,,,,,,,,,,,,,,,,,,,,,,,,,,,,,,,,,,,,,,,,,,,,,,,,,,,,,,,,,,,,,,,,,,,,30050
51,Kaitaia Hospital,29 Redan Road,,Kaitaia,410,,-39.0584428,174.0632979,FALSE,,,,,,,,,,,,,,,,,,,,,,,,,,,,,,,,,,,,,,,,,,,,,,,,,,,,,,,,,,,,,,,,,,,,,,,,,,,,,,,,30051
52,Timatanga Hou - Detox Unit,77 Awakino Road,,Dargaville,310,,-35.9163846,173.8675466,FALSE,,,,,,,,,,,,,,,,,,,,,,,,,,,,,,,,,,,,,,,,,,,,,,,,,,,,,,,,,,,,,,,,,,,,,,,,,,,,,,,,30052
53,Whangarei Hospital,115 Maunu Road,Woodhill,Whangarei,110,,-38.1585406,176.2384741,FALSE,,,,,,,,,,,,,,,,,,,,,,,,,,,,,,,,,,,,,,,,,,,,,,,,,,,,,,,,,,,,,,,,,,,,,,,,,,,,,,,,30053
54,Timaru Hospital,14 Queen Street,Parkside,Timaru,7910,,-41.30941555,174.7755261,FALSE,,,,,,,,,,,,,,,,,,,,,,,,,,,,,,,,,,,,,,,,,,,,,,,,,,,,,,,,,,,,,,,,,,,,,,,,,,,,,,,,30054
55,Dunedin Hospital,275 Great King Street,Dunedin Central,Dunedin,9016,,-43.5156353,172.6243668,FALSE,,,,,,,,,,,,,,,,,,,,,,,,,,,,,,,,,,,,,,,,,,,,,,,,,,,,,,,,,,,,,,,,,,,,,,,,,,,,,,,,30055
56,Lakes District Hospital,20 Douglas Street,Frankton,Queenstown,9300,,-45.0232754,168.7357644,FALSE,,,,,,,,,,,,,,,,,,,,,,,,,,,,,,,,,,,,,,,,,,,,,,,,,,,,,,,,,,,,,,,,,,,,,,,,,,,,,,,,30056
57,Southland Hospital,145 Kew Road,Kew,Invercargill,9812,,-39.6812239,175.7957078,FALSE,,,,,,,,,,,,,,,,,,,,,,,,,,,,,,,,,,,,,,,,,,,,,,,,,,,,,,,,,,,,,,,,,,,,,,,,,,,,,,,,30057
58,Wakari Hospital,369 Taieri Road,Halfway Bush,Dunedin,9010,,-40.2119493,176.0983939,FALSE,,,,,,,,,,,,,,,,,,,,,,,,,,,,,,,,,,,,,,,,,,,,,,,,,,,,,,,,,,,,,,,,,,,,,,,,,,,,,,,,30058
59,Gisborne Hospital,421 Ormond Road,Lytton West,Gisborne,4010,,-38.00663546,175.3393822,FALSE,,,,,,,,,,,,,,,,,,,,,,,,,,,,,,,,,,,,,,,,,,,,,,,,,,,,,,,,,,,,,,,,,,,,,,,,,,,,,,,,30059
60,Hawera Hospital,41 Hunter Street,,Hawera,4610,,-41.2178631,174.9045367,FALSE,,,,,,,,,,,,,,,,,,,,,,,,,,,,,,,,,,,,,,,,,,,,,,,,,,,,,,,,,,,,,,,,,,,,,,,,,,,,,,,,30060
61,Taranaki Base Hospital,118 Tukapa Street,Westown,New Plymouth,4310,,-36.8872079,174.8004688,FALSE,,,,,,,,,,,,,,,,,,,,,,,,,,,,,,,,,,,,,,,,,,,,,,,,,,,,,,,,,,,,,,,,,,,,,,,,,,,,,,,,30061
62,Henry Rongomau Bennett Centre,183 Pembroke Street,Waikato Hospital,Hamilton,3204,,-36.8739505,174.7701466,FALSE,,,,,,,,,,,,,,,,,,,,,,,,,,,,,,,,,,,,,,,,,,,,,,,,,,,,,,,,,,,,,,,,,,,,,,,,,,,,,,,,30062
63,Matariki Hospital,389 Kihikihi Road,,Te Awamutu,3800,,-38.6648086,178.0181538,FALSE,,,,,,,,,,,,,,,,,,,,,,,,,,,,,,,,,,,,,,,,,,,,,,,,,,,,,,,,,,,,,,,,,,,,,,,,,,,,,,,,30063
64,Puna Whiti,183 Pembroke Street,Waikato Hospital,Hamilton,3204,,-41.5346068,173.9458909,FALSE,,,,,,,,,,,,,,,,,,,,,,,,,,,,,,,,,,,,,,,,,,,,,,,,,,,,,,,,,,,,,,,,,,,,,,,,,,,,,,,,30064
65,Rhoda Read Hospital,222 Studholme Street,,Morrinsville,3300,,-39.6426461,176.8366439,FALSE,,,,,,,,,,,,,,,,,,,,,,,,,,,,,,,,,,,,,,,,,,,,,,,,,,,,,,,,,,,,,,,,,,,,,,,,,,,,,,,,30065
66,Taumarunui Hospital and Family Health Team,6 Whanganui River Road,,Taumarunui,3920,,-41.3104341,174.7826958,FALSE,,,,,,,,,,,,,,,,,,,,,,,,,,,,,,,,,,,,,,,,,,,,,,,,,,,,,,,,,,,,,,,,,,,,,,,,,,,,,,,,30066
67,Te Kuiti Hospital,24 Ailsa Street,,Te Kuiti,3910,,-37.0040464,174.9176915,FALSE,,,,,,,,,,,,,,,,,,,,,,,,,,,,,,,,,,,,,,,,,,,,,,,,,,,,,,,,,,,,,,,,,,,,,,,,,,,,,,,,30067
68,Thames Hospital,606 MacKay Street,,Thames,3500,,-37.8016457,175.3069163,FALSE,,,,,,,,,,,,,,,,,,,,,,,,,,,,,,,,,,,,,,,,,,,,,,,,,,,,,,,,,,,,,,,,,,,,,,,,,,,,,,,,30068
69,Tokoroa Hospital,75 Maraetai Road,,Tokoroa,3420,,-38.2299504,175.8597485,FALSE,,,,,,,,,,,,,,,,,,,,,,,,,,,,,,,,,,,,,,,,,,,,,,,,,,,,,,,,,,,,,,,,,,,,,,,,,,,,,,,,30069
70,Waikato Hospital,183 Pembroke Street,Waikato Hospital,Hamilton,3240,,-45.09904225,170.9686653,FALSE,,,,,,,,,,,,,,,,,,,,,,,,,,,,,,,,,,,,,,,,,,,,,,,,,,,,,,,,,,,,,,,,,,,,,,,,,,,,,,,,30070
71,Ward OPR1,183 Pembroke Street,Waikato Hospital,Hamilton,3204,,-37.7931358,175.2889155,FALSE,,,,,,,,,,,,,,,,,,,,,,,,,,,,,,,,,,,,,,,,,,,,,,,,,,,,,,,,,,,,,,,,,,,,,,,,,,,,,,,,30071
72,Wairarapa Hospital,20 Te Ore Ore Road,Lansdowne,Masterton,5910,,-40.9467006,175.6744461,FALSE,,,,,,,,,,,,,,,,,,,,,,,,,,,,,,,,,,,,,,,,,,,,,,,,,,,,,,,,,,,,,,,,,,,,,,,,,,,,,,,,30072
73,Elective Surgery Centre,124 Shakespeare Road,Takapuna,Auckland,622,,-36.78162315,174.7569005,FALSE,,,,,,,,,,,,,,,,,,,,,,,,,,,,,,,,,,,,,,,,,,,,,,,,,,,,,,,,,,,,,,,,,,,,,,,,,,,,,,,,30073
74,He Puna Waiora,132 Shakespeare Road,Takapuna,Auckland,622,,-36.7802532,174.7555869,FALSE,,,,,,,,,,,,,,,,,,,,,,,,,,,,,,,,,,,,,,,,,,,,,,,,,,,,,,,,,,,,,,,,,,,,,,,,,,,,,,,,30074
75,North Shore Hospital,132 Shakespeare Road,Takapuna,Auckland,622,,-36.7802532,174.7555869,FALSE,,,,,,,,,,,,,,,,,,,,,,,,,,,,,,,,,,,,,,,,,,,,,,,,,,,,,,,,,,,,,,,,,,,,,,,,,,,,,,,,30075
76,Pitman House,50 Carrington Road,Point Chevalier,Auckland,1025,,-36.8736682,174.7103945,FALSE,,,,,,,,,,,,,,,,,,,,,,,,,,,,,,,,,,,,,,,,,,,,,,,,,,,,,,,,,,,,,,,,,,,,,,,,,,,,,,,,30076
77,Waiatarau Inpatient Mental Health Unit,75 Lincoln Road,Henderson,Auckland,610,,-36.8695563,174.6306163,FALSE,,,,,,,,,,,,,,,,,,,,,,,,,,,,,,,,,,,,,,,,,,,,,,,,,,,,,,,,,,,,,,,,,,,,,,,,,,,,,,,,30077
78,Waitakere Hospital,55 Lincoln Road,Henderson,Auckland,610,,-36.8695563,174.6306163,FALSE,,,,,,,,,,,,,,,,,,,,,,,,,,,,,,,,,,,,,,,,,,,,,,,,,,,,,,,,,,,,,,,,,,,,,,,,,,,,,,,,30078
79,Wilson Centre,1 St Leonards Road,Hauraki,Auckland,622,,-36.79982477,174.7880361,FALSE,,,,,,,,,,,,,,,,,,,,,,,,,,,,,,,,,,,,,,,,,,,,,,,,,,,,,,,,,,,,,,,,,,,,,,,,,,,,,,,,30079
80,Buller Health,45 Derby Street,,Westport,7825,,-41.7492183,171.6049104,FALSE,,,,,,,,,,,,,,,,,,,,,,,,,,,,,,,,,,,,,,,,,,,,,,,,,,,,,,,,,,,,,,,,,,,,,,,,,,,,,,,,30080
81,Grey Base Hospital,71 Water Walk Road,,Greymouth,7805,,-42.4632729,171.1920975,FALSE,,,,,,,,,,,,,,,,,,,,,,,,,,,,,,,,,,,,,,,,,,,,,,,,,,,,,,,,,,,,,,,,,,,,,,,,,,,,,,,,30081
82,Whanganui Hospital,100 Heads Road,Gonville,Wanganui,4501,,-39.9451161,175.0370516,FALSE,,,,,,,,,,,,,,,,,,,,,,,,,,,,,,,,,,,,,,,,,,,,,,,,,,,,,,,,,,,,,,,,,,,,,,,,,,,,,,,,30082
83,Bowen Hospital,98 Churchill Drive,Crofton Downs,Wellington,6035,,-41.25916475,174.7670579,FALSE,,,,,,,,,,,,,,,,,,,,,,,,,,,,,,,,,,,,,,,,,,,,,,,,,,,,,,,,,,,,,,,,,,,,,,,,,,,,,,,,30083
84,Royston Hospital,500 Southland Road,,Hastings,4122,,-39.6393198,176.8365016,FALSE,,,,,,,,,,,,,,,,,,,,,,,,,,,,,,,,,,,,,,,,,,,,,,,,,,,,,,,,,,,,,,,,,,,,,,,,,,,,,,,,30084
85,Wakefield Hospital,30 Florence Street,Newtown,Wellington,6021,,-41.3166673,174.7791441,FALSE,,,,,,,,,,,,,,,,,,,,,,,,,,,,,,,,,,,,,,,,,,,,,,,,,,,,,,,,,,,,,,,,,,,,,,,,,,,,,,,,30085
86,Anglesea Hospital,Knox Street,Hamilton Central,Hamilton,3204,,-37.7914612,175.2851755,FALSE,,,,,,,,,,,,,,,,,,,,,,,,,,,,,,,,,,,,,,,,,,,,,,,,,,,,,,,,,,,,,,,,,,,,,,,,,,,,,,,,30086
87,Arohanui Hospice Service Trust,1 Heretaunga Street,,Palmerston North,4414,,-40.337336,175.6163028,FALSE,,,,,,,,,,,,,,,,,,,,,,,,,,,,,,,,,,,,,,,,,,,,,,,,,,,,,,,,,,,,,,,,,,,,,,,,,,,,,,,,30087
88,The Ashburn Clinic,496 Taieri Road,Halfway Bush,Dunedin,9010,,-45.8523532,170.4593955,FALSE,,,,,,,,,,,,,,,,,,,,,,,,,,,,,,,,,,,,,,,,,,,,,,,,,,,,,,,,,,,,,,,,,,,,,,,,,,,,,,,,30088
89,Belverdale Hospital,5 Campbell Street,,Wanganui,4500,,-39.9295215,175.0506686,FALSE,,,,,,,,,,,,,,,,,,,,,,,,,,,,,,,,,,,,,,,,,,,,,,,,,,,,,,,,,,,,,,,,,,,,,,,,,,,,,,,,30089
90,Bidwill Trust Hospital,53 Elizabeth Street,Seaview,Timaru,7910,,-44.3946634,171.2424688,FALSE,,,,,,,,,,,,,,,,,,,,,,,,,,,,,,,,,,,,,,,,,,,,,,,,,,,,,,,,,,,,,,,,,,,,,,,,,,,,,,,,30090
91,Birthcare Auckland,20 Titoki Street,Parnell,Auckland,1052,,-36.8622095,174.7796385,FALSE,,,,,,,,,,,,,,,,,,,,,,,,,,,,,,,,,,,,,,,,,,,,,,,,,,,,,,,,,,,,,,,,,,,,,,,,,,,,,,,,30091
92,Birthcare Huntly,5 Onslow Street,,Huntly,3700,,-37.555713,175.1604751,FALSE,,,,,,,,,,,,,,,,,,,,,,,,,,,,,,,,,,,,,,,,,,,,,,,,,,,,,,,,,,,,,,,,,,,,,,,,,,,,,,,,30092
93,Bethlehem Birthing Centre,1 Te Paeroa Road,Bethlehem,Tauranga,3110,,-37.6936595,176.1071535,FALSE,,,,,,,,,,,,,,,,,,,,,,,,,,,,,,,,,,,,,,,,,,,,,,,,,,,,,,,,,,,,,,,,,,,,,,,,,,,,,,,,30093
94,Nga Hau Mangere Birthing Centre,14 Waddon Place,Mangere,Auckland,2022,,-36.9708868,174.7992164,FALSE,,,,,,,,,,,,,,,,,,,,,,,,,,,,,,,,,,,,,,,,,,,,,,,,,,,,,,,,,,,,,,,,,,,,,,,,,,,,,,,,30094
95,Te Awakairangi Birthing Centre,2 Connolly Street,Hutt Central,Lower Hutt,5010,,-41.2039644,174.9120569,FALSE,,,,,,,,,,,,,,,,,,,,,,,,,,,,,,,,,,,,,,,,,,,,,,,,,,,,,,,,,,,,,,,,,,,,,,,,,,,,,,,,30095
96,Boulcott Hospital,666 High Street,Boulcott,Lower Hutt,5010,,-41.2033481,174.9263451,FALSE,,,,,,,,,,,,,,,,,,,,,,,,,,,,,,,,,,,,,,,,,,,,,,,,,,,,,,,,,,,,,,,,,,,,,,,,,,,,,,,,30096
97,Braemar Hospital,24 Ohaupo Road,Hamilton Lake,Hamilton,3204,,-37.8078978,175.2789925,FALSE,,,,,,,,,,,,,,,,,,,,,,,,,,,,,,,,,,,,,,,,,,,,,,,,,,,,,,,,,,,,,,,,,,,,,,,,,,,,,,,,30097
98,Dunstan Hospital,Hospital Road,,Clyde,9391,,-45.1919951,169.3210276,FALSE,,,,,,,,,,,,,,,,,,,,,,,,,,,,,,,,,,,,,,,,,,,,,,,,,,,,,,,,,,,,,,,,,,,,,,,,,,,,,,,,30098
99,Winton Maternity Centre,384 Great North Road,,Winton,9720,,-46.1348074,168.3259065,FALSE,,,,,,,,,,,,,,,,,,,,,,,,,,,,,,,,,,,,,,,,,,,,,,,,,,,,,,,,,,,,,,,,,,,,,,,,,,,,,,,,30099
100,Charlotte Jean Maternity Hospital,26 Ventry Street,,Alexandra,9320,,-45.253165,169.3878979,FALSE,,,,,,,,,,,,,,,,,,,,,,,,,,,,,,,,,,,,,,,,,,,,,,,,,,,,,,,,,,,,,,,,,,,,,,,,,,,,,,,,30100
101,Clutha Health First,9 Charlotte Street,,Balclutha,9230,,-46.236754,169.7395687,FALSE,,,,,,,,,,,,,,,,,,,,,,,,,,,,,,,,,,,,,,,,,,,,,,,,,,,,,,,,,,,,,,,,,,,,,,,,,,,,,,,,30101
102,Wellsford Birthing Unit,218 Rodney Street,,Wellsford,900,,-36.292827,174.524486,FALSE,,,,,,,,,,,,,,,,,,,,,,,,,,,,,,,,,,,,,,,,,,,,,,,,,,,,,,,,,,,,,,,,,,,,,,,,,,,,,,,,30102
103,Crest Hospital ,21 Carroll Street,,Palmerston North,4410,,-40.3490226,175.6116388,FALSE,,,,,,,,,,,,,,,,,,,,,,,,,,,,,,,,,,,,,,,,,,,,,,,,,,,,,,,,,,,,,,,,,,,,,,,,,,,,,,,,30103
104,Endoscopy Auckland,148 Gillies Avenue,Epsom,Auckland,1023,,-36.8800923,174.7724292,FALSE,,,,,,,,,,,,,,,,,,,,,,,,,,,,,,,,,,,,,,,,,,,,,,,,,,,,,,,,,,,,,,,,,,,,,,,,,,,,,,,,30104
105,Forte Health Hospital,132 Peterborough Street,Christchurch Central,Christchurch,8013,,-43.5262993,172.6378126,FALSE,,,,,,,,,,,,,,,,,,,,,,,,,,,,,,,,,,,,,,,,,,,,,,,,,,,,,,,,,,,,,,,,,,,,,,,,,,,,,,,,30105
106,Franklin Private Hospital,12 Glasgow Road,,Pukekohe,2120,,-37.2076533,174.9073996,FALSE,,,,,,,,,,,,,,,,,,,,,,,,,,,,,,,,,,,,,,,,,,,,,,,,,,,,,,,,,,,,,,,,,,,,,,,,,,,,,,,,30106
107,Gore Health Limited,9 Birch Lane,,Gore,9710,,-46.1031953,168.937388,FALSE,,,,,,,,,,,,,,,,,,,,,,,,,,,,,,,,,,,,,,,,,,,,,,,,,,,,,,,,,,,,,,,,,,,,,,,,,,,,,,,,30107
108,Helensville Birthing Centre,53 Commercial Road,,Helensville,800,,-36.675681,174.451024,FALSE,,,,,,,,,,,,,,,,,,,,,,,,,,,,,,,,,,,,,,,,,,,,,,,,,,,,,,,,,,,,,,,,,,,,,,,,,,,,,,,,30108
109,Hospice Southland,75 Kew Road,Kew,Invercargill,9812,,-36.9213369,174.9129991,FALSE,,,,,,,,,,,,,,,,,,,,,,,,,,,,,,,,,,,,,,,,,,,,,,,,,,,,,,,,,,,,,,,,,,,,,,,,,,,,,,,,30109
110,Te Rangimarie Hospice,5 David Street,Westown,New Plymouth,4310,,-39.0735868,174.0583019,FALSE,,,,,,,,,,,,,,,,,,,,,,,,,,,,,,,,,,,,,,,,,,,,,,,,,,,,,,,,,,,,,,,,,,,,,,,,,,,,,,,,30110
111,Hospice Wanganui,78 Virginia Road,Otamatea,Wanganui,4500,,-39.907202,175.026629,FALSE,,,,,,,,,,,,,,,,,,,,,,,,,,,,,,,,,,,,,,,,,,,,,,,,,,,,,,,,,,,,,,,,,,,,,,,,,,,,,,,,30111
112,Kensington Hospital,12 Kensington Avenue,Kensington,Whangarei,112,,-35.7086063,174.3202002,FALSE,,,,,,,,,,,,,,,,,,,,,,,,,,,,,,,,,,,,,,,,,,,,,,,,,,,,,,,,,,,,,,,,,,,,,,,,,,,,,,,,30112
113,Manuka Street Hospital,36 Manuka Street,,Nelson,7010,,-41.2785985,173.2904762,FALSE,,,,,,,,,,,,,,,,,,,,,,,,,,,,,,,,,,,,,,,,,,,,,,,,,,,,,,,,,,,,,,,,,,,,,,,,,,,,,,,,30113
114,Hospice Marlborough,100A Hospital Road,Witherlea,Blenheim,7201,,-41.5344335,173.9541376,FALSE,,,,,,,,,,,,,,,,,,,,,,,,,,,,,,,,,,,,,,,,,,,,,,,,,,,,,,,,,,,,,,,,,,,,,,,,,,,,,,,,30114
115,Mercy Hospice,61 College Hill,Freemans Bay,Auckland,1011,,-36.847885,174.7474135,FALSE,,,,,,,,,,,,,,,,,,,,,,,,,,,,,,,,,,,,,,,,,,,,,,,,,,,,,,,,,,,,,,,,,,,,,,,,,,,,,,,,30115
116,Nelson Tasman Hospice,331 Suffolk Road,Stoke,Nelson,7011,,-41.3242785,173.2297138,FALSE,,,,,,,,,,,,,,,,,,,,,,,,,,,,,,,,,,,,,,,,,,,,,,,,,,,,,,,,,,,,,,,,,,,,,,,,,,,,,,,,30116
117,Grace Hospital,281 Cheyne Road,Pyes Pa,Tauranga,3112,,-37.742462,176.1370835,FALSE,,,,,,,,,,,,,,,,,,,,,,,,,,,,,,,,,,,,,,,,,,,,,,,,,,,,,,,,,,,,,,,,,,,,,,,,,,,,,,,,30117
118,North Haven Hospice,24a Takahe Street,Tikipunga,Whangarei,112,,-35.6950886,174.3325857,FALSE,,,,,,,,,,,,,,,,,,,,,,,,,,,,,,,,,,,,,,,,,,,,,,,,,,,,,,,,,,,,,,,,,,,,,,,,,,,,,,,,30118
119,Nurse Maude Hospice,15 Mansfield Avenue,St Albans,Christchurch,8014,,-43.5112131,172.6223412,FALSE,,,,,,,,,,,,,,,,,,,,,,,,,,,,,,,,,,,,,,,,,,,,,,,,,,,,,,,,,,,,,,,,,,,,,,,,,,,,,,,,30119
120,Ormiston Surgical & Endoscopy,125 Ormiston Road,Flat Bush,Auckland,2016,,-36.964617,174.9052788,FALSE,,,,,,,,,,,,,,,,,,,,,,,,,,,,,,,,,,,,,,,,,,,,,,,,,,,,,,,,,,,,,,,,,,,,,,,,,,,,,,,,30120
121,Otago Community Hospice,293 North Road,North East Valley,Dunedin,9010,,-45.84787295,170.5318783,FALSE,,,,,,,,,,,,,,,,,,,,,,,,,,,,,,,,,,,,,,,,,,,,,,,,,,,,,,,,,,,,,,,,,,,,,,,,,,,,,,,,30121
122,Quay Park Surgical Ltd,68 Beach Road,Auckland Central,Auckland,1010,,-36.8455215,174.7703451,FALSE,,,,,,,,,,,,,,,,,,,,,,,,,,,,,,,,,,,,,,,,,,,,,,,,,,,,,,,,,,,,,,,,,,,,,,,,,,,,,,,,30122
123,Remuera Surgical Care,122 Remuera Road,Remuera,Auckland,1050,,-36.8803768,174.8118722,FALSE,,,,,,,,,,,,,,,,,,,,,,,,,,,,,,,,,,,,,,,,,,,,,,,,,,,,,,,,,,,,,,,,,,,,,,,,,,,,,,,,30123
124,River Ridge East Birth Centre,35 Von Tempsky Street,Hamilton East,Hamilton,3216,,-37.7883069,175.2903534,FALSE,,,,,,,,,,,,,,,,,,,,,,,,,,,,,,,,,,,,,,,,,,,,,,,,,,,,,,,,,,,,,,,,,,,,,,,,,,,,,,,,30124
125,Warkworth Birthing Centre,56 View Road,,Warkworth,910,,-36.40084416,174.6541935,FALSE,,,,,,,,,,,,,,,,,,,,,,,,,,,,,,,,,,,,,,,,,,,,,,,,,,,,,,,,,,,,,,,,,,,,,,,,,,,,,,,,30125
126,Selina Sutherland Hospital,17 Blair Street,Lansdowne,Masterton,5810,,-40.9470552,175.6725983,FALSE,,,,,,,,,,,,,,,,,,,,,,,,,,,,,,,,,,,,,,,,,,,,,,,,,,,,,,,,,,,,,,,,,,,,,,,,,,,,,,,,30126
127,Hospice South Canterbury,55 Broadway Avenue,Highfield,Timaru,7910,,-44.3858177,171.2156999,FALSE,,,,,,,,,,,,,,,,,,,,,,,,,,,,,,,,,,,,,,,,,,,,,,,,,,,,,,,,,,,,,,,,,,,,,,,,,,,,,,,,30127
128,Auckland Surgical Centre,9 St Marks Road,Remuera,Auckland,1050,,-41.1296558,173.0080598,FALSE,,,,,,,,,,,,,,,,,,,,,,,,,,,,,,,,,,,,,,,,,,,,,,,,,,,,,,,,,,,,,,,,,,,,,,,,,,,,,,,,30128
129,Gillies Hospital,160 Gillies Avenue,Epsom,Auckland,1023,,-36.8812416,174.7721431,FALSE,,,,,,,,,,,,,,,,,,,,,,,,,,,,,,,,,,,,,,,,,,,,,,,,,,,,,,,,,,,,,,,,,,,,,,,,,,,,,,,,30129
130,Southern Cross Hospital Brightside,3 Brightside Road,Epsom,Auckland,1023,,-36.8791865,174.7711067,FALSE,,,,,,,,,,,,,,,,,,,,,,,,,,,,,,,,,,,,,,,,,,,,,,,,,,,,,,,,,,,,,,,,,,,,,,,,,,,,,,,,30130
131,Southern Cross Hospital Christchurch,131 Bealey Avenue,Christchurch Central,Christchurch,8013,,-43.5206741,172.6344055,FALSE,,,,,,,,,,,,,,,,,,,,,,,,,,,,,,,,,,,,,,,,,,,,,,,,,,,,,,,,,,,,,,,,,,,,,,,,,,,,,,,,30131
132,Southern Cross Hospital Hamilton,21 Von Tempsky Street,Hamilton East,Hamilton,3216,,-37.7889297,175.2905872,FALSE,,,,,,,,,,,,,,,,,,,,,,,,,,,,,,,,,,,,,,,,,,,,,,,,,,,,,,,,,,,,,,,,,,,,,,,,,,,,,,,,30132
133,Southern Cross Hospital Invercargill,108 Deveron Street,,Invercargill,9810,,-46.4071085,168.3535626,FALSE,,,,,,,,,,,,,,,,,,,,,,,,,,,,,,,,,,,,,,,,,,,,,,,,,,,,,,,,,,,,,,,,,,,,,,,,,,,,,,,,30133
134,Southern Cross Hospital New Plymouth,205 St Aubyn Street,,New Plymouth,4310,,-39.0584428,174.0632979,FALSE,,,,,,,,,,,,,,,,,,,,,,,,,,,,,,,,,,,,,,,,,,,,,,,,,,,,,,,,,,,,,,,,,,,,,,,,,,,,,,,,30134
135,Southern Cross Hospital North Harbour,232 Wairau Road,Wairau Valley,Auckland,627,,-35.9163846,173.8675466,FALSE,,,,,,,,,,,,,,,,,,,,,,,,,,,,,,,,,,,,,,,,,,,,,,,,,,,,,,,,,,,,,,,,,,,,,,,,,,,,,,,,30135
136,Southern Cross Hospital Rotorua,58 Otonga Road,Springfield,Rotorua,2015,,-38.1585406,176.2384741,FALSE,,,,,,,,,,,,,,,,,,,,,,,,,,,,,,,,,,,,,,,,,,,,,,,,,,,,,,,,,,,,,,,,,,,,,,,,,,,,,,,,30136
137,Southern Cross Hospital Wellington,90 Hanson Street,Newtown,Wellington,6021,,-41.30941555,174.7755261,FALSE,,,,,,,,,,,,,,,,,,,,,,,,,,,,,,,,,,,,,,,,,,,,,,,,,,,,,,,,,,,,,,,,,,,,,,,,,,,,,,,,30137
138,St George's Hospital,249 Papanui Road,Strowan,Christchurch,8014,,-43.5156353,172.6243668,FALSE,,,,,,,,,,,,,,,,,,,,,,,,,,,,,,,,,,,,,,,,,,,,,,,,,,,,,,,,,,,,,,,,,,,,,,,,,,,,,,,,30138
139,St Marks Road Surgical Centre,3 St Marks Road,Remuera,Auckland,1050,,-45.0232754,168.7357644,FALSE,,,,,,,,,,,,,,,,,,,,,,,,,,,,,,,,,,,,,,,,,,,,,,,,,,,,,,,,,,,,,,,,,,,,,,,,,,,,,,,,30139
140,Taihape Health Limited,3 Hospital Road,,Taihape,4720,,-39.6812239,175.7957078,FALSE,,,,,,,,,,,,,,,,,,,,,,,,,,,,,,,,,,,,,,,,,,,,,,,,,,,,,,,,,,,,,,,,,,,,,,,,,,,,,,,,30140
141,Dannevirke Community Hospital,26 Barraud Street,,Dannevirke,4930,,-40.2119493,176.0983939,FALSE,,,,,,,,,,,,,,,,,,,,,,,,,,,,,,,,,,,,,,,,,,,,,,,,,,,,,,,,,,,,,,,,,,,,,,,,,,,,,,,,30141
142,Te Awamutu Birthing,15/670 Cambridge Road,,Te Awamutu,3800,,-38.00663546,175.3393822,FALSE,,,,,,,,,,,,,,,,,,,,,,,,,,,,,,,,,,,,,,,,,,,,,,,,,,,,,,,,,,,,,,,,,,,,,,,,,,,,,,,,30142
143,Te Omanga Hospice,136 Woburn Road,Woburn,Lower Hutt,5010,,-41.2178631,174.9045367,FALSE,,,,,,,,,,,,,,,,,,,,,,,,,,,,,,,,,,,,,,,,,,,,,,,,,,,,,,,,,,,,,,,,,,,,,,,,,,,,,,,,30143
144,Ascot Integrated Hospital,90 Green Lane East,Remuera,Auckland,1051,,-36.8872079,174.8004688,FALSE,,,,,,,,,,,,,,,,,,,,,,,,,,,,,,,,,,,,,,,,,,,,,,,,,,,,,,,,,,,,,,,,,,,,,,,,,,,,,,,,30144
145,Mercy Integrated Hospital,98 Mountain Road,Epsom,Auckland,1023,,-36.8739505,174.7701466,FALSE,,,,,,,,,,,,,,,,,,,,,,,,,,,,,,,,,,,,,,,,,,,,,,,,,,,,,,,,,,,,,,,,,,,,,,,,,,,,,,,,30145
146,Chelsea Hospital Trust,189 Cobden Street,,Gisborne,4010,,-38.6648086,178.0181538,FALSE,,,,,,,,,,,,,,,,,,,,,,,,,,,,,,,,,,,,,,,,,,,,,,,,,,,,,,,,,,,,,,,,,,,,,,,,,,,,,,,,30146
147,Churchill Private Hospital,30 Hospital Road,Witherlea,Blenheim,7201,,-41.5346068,173.9458909,FALSE,,,,,,,,,,,,,,,,,,,,,,,,,,,,,,,,,,,,,,,,,,,,,,,,,,,,,,,,,,,,,,,,,,,,,,,,,,,,,,,,30147
148,The Cranford Hospice ,300 Knight Street,,Hastings,4122,,-39.6426461,176.8366439,FALSE,,,,,,,,,,,,,,,,,,,,,,,,,,,,,,,,,,,,,,,,,,,,,,,,,,,,,,,,,,,,,,,,,,,,,,,,,,,,,,,,30148
149,Mary Potter Hospice,48 Mein Street,Newtown,Wellington,6021,,-41.3104341,174.7826958,FALSE,,,,,,,,,,,,,,,,,,,,,,,,,,,,,,,,,,,,,,,,,,,,,,,,,,,,,,,,,,,,,,,,,,,,,,,,,,,,,,,,30149
150,Totara Hospice,140 Charles Prevost Drive,The Gardens,Auckland,2105,,-37.0040464,174.9176915,FALSE,,,,,,,,,,,,,,,,,,,,,,,,,,,,,,,,,,,,,,,,,,,,,,,,,,,,,,,,,,,,,,,,,,,,,,,,,,,,,,,,30150
151,Hospice Waikato,334 Cobham Drive,Hillcrest,Hamilton,3216,,-37.8016457,175.3069163,FALSE,,,,,,,,,,,,,,,,,,,,,,,,,,,,,,,,,,,,,,,,,,,,,,,,,,,,,,,,,,,,,,,,,,,,,,,,,,,,,,,,30151
152,Waipuna Hospice,43 Te Puna Station Road,RD 6,Tauranga,3176,,-38.2299504,175.8597485,FALSE,,,,,,,,,,,,,,,,,,,,,,,,,,,,,,,,,,,,,,,,,,,,,,,,,,,,,,,,,,,,,,,,,,,,,,,,,,,,,,,,30152
153,Oamaru Hospital,8 Steward Street,,Oamaru,9400,,-45.09904225,170.9686653,FALSE,,,,,,,,,,,,,,,,,,,,,,,,,,,,,,,,,,,,,,,,,,,,,,,,,,,,,,,,,,,,,,,,,,,,,,,,,,,,,,,,30153
154,Waterford Birth Centre,27 Tisdall Terrace,Hamilton Central,Hamilton,3204,,-37.7931358,175.2889155,FALSE,,,,,,,,,,,,,,,,,,,,,,,,,,,,,,,,,,,,,,,,,,,,,,,,,,,,,,,,,,,,,,,,,,,,,,,,,,,,,,,,30154